ORBCOMM FM33 [-]        
1 25983U 99065D   23302.77601262  .00001756  00000+0  63511-3 0  9994
2 25983  45.0302 306.9789 0010579 299.9081 229.8323 14.36906764250276
ORBCOMM FM36 [-]        
1 25984U 99065E   23302.56471751  .00002027  00000+0  75778-3 0  9990
2 25984  45.0415  30.1353 0004852 199.4943 160.5720 14.34778463248644
ORBCOMM FM35 [+]        
1 25985U 99065F   23302.55835522  .00001649  00000+0  62939-3 0  9994
2 25985  45.0416  32.2837 0003986 271.9732  88.0659 14.34468307249048
ORBCOMM FM34 [-]        
1 25986U 99065G   23302.52298738  .00001674  00000+0  63899-3 0  9998
2 25986  45.0407  32.9290 0005257 232.4041 127.6330 14.34416865249157
ORBCOMM FM38 [-]        
1 33060U 08031A   23302.59672102  .00003544  00000+0  53507-3 0  9994
2 33060  48.4412 266.4160 0005729   0.7201 359.3719 14.76287688826465
ORBCOMM FM41 [-]        
1 33061U 08031B   23302.36680359  .00003536  00000+0  53678-3 0  9993
2 33061  48.4448 273.6877 0004990 345.6186 168.8283 14.76048454825938
ORBCOMM FM29 [-]        
1 33062U 08031C   23302.24871084  .00003430  00000+0  52304-3 0  9996
2 33062  48.4400 282.2323 0006914 344.2503  29.4265 14.75930875825832
ORBCOMM FM39 [-]        
1 33063U 08031D   23302.36167114  .00002965  00000+0  46518-3 0  9994
2 33063  48.4413 300.8667 0008013 322.1674  37.8675 14.75079013825567
